CCSDS_OMM_VERS = 2.0
CREATION_DATE  = 
ORIGINATOR     = 

OBJECT_NAME    = KUIPER-00200
OBJECT_ID      = 2026-030J
CENTER_NAME    = EARTH
REF_FRAME      = TEME
TIME_SYSTEM    = UTC
MEAN_ELEMENT_THEORY = SGP/SGP4

EPOCH          = 2026-03-08T12:08:53.314368
MEAN_MOTION    = 15.37054343
ECCENTRICITY   = .0001002
INCLINATION    = 51.8813
RA_OF_ASC_NODE = 224.6440
ARG_OF_PERICENTER = 263.0959
MEAN_ANOMALY   = 96.9914

EPHEMERIS_TYPE = 0
CLASSIFICATION_TYPE = U
NORAD_CAT_ID   = 67772
ELEMENT_SET_NO = 999
REV_AT_EPOCH   = 491
BSTAR          = .14551E-2
MEAN_MOTION_DOT = .53571E-3
MEAN_MOTION_DDOT = 0

CCSDS_OMM_VERS = 2.0
CREATION_DATE  = 
ORIGINATOR     = 

OBJECT_NAME    = KUIPER-00203
OBJECT_ID      = 2026-030K
CENTER_NAME    = EARTH
REF_FRAME      = TEME
TIME_SYSTEM    = UTC
MEAN_ELEMENT_THEORY = SGP/SGP4

EPOCH          = 2026-03-08T12:00:01.999296
MEAN_MOTION    = 15.15731812
ECCENTRICITY   = .0011632
INCLINATION    = 51.8860
RA_OF_ASC_NODE = 225.6745
ARG_OF_PERICENTER = 57.2611
MEAN_ANOMALY   = 99.7931

EPHEMERIS_TYPE = 0
CLASSIFICATION_TYPE = U
NORAD_CAT_ID   = 67773
ELEMENT_SET_NO = 999
REV_AT_EPOCH   = 347
BSTAR          = -.65583E-1
MEAN_MOTION_DOT = -.1168531E-1
MEAN_MOTION_DDOT = 0

CCSDS_OMM_VERS = 2.0
CREATION_DATE  = 
ORIGINATOR     = 

OBJECT_NAME    = KUIPER-00205
OBJECT_ID      = 2026-030L
CENTER_NAME    = EARTH
REF_FRAME      = TEME
TIME_SYSTEM    = UTC
MEAN_ELEMENT_THEORY = SGP/SGP4

EPOCH          = 2026-03-08T12:23:53.555712
MEAN_MOTION    = 15.36379882
ECCENTRICITY   = .0003082
INCLINATION    = 51.8802
RA_OF_ASC_NODE = 224.7089
ARG_OF_PERICENTER = 18.8779
MEAN_ANOMALY   = 341.2322

EPHEMERIS_TYPE = 0
CLASSIFICATION_TYPE = U
NORAD_CAT_ID   = 67774
ELEMENT_SET_NO = 999
REV_AT_EPOCH   = 491
BSTAR          = .11302E-2
MEAN_MOTION_DOT = .40558E-3
MEAN_MOTION_DDOT = 0

CCSDS_OMM_VERS = 2.0
CREATION_DATE  = 
ORIGINATOR     = 

OBJECT_NAME    = KUIPER-00208
OBJECT_ID      = 2026-030M
CENTER_NAME    = EARTH
REF_FRAME      = TEME
TIME_SYSTEM    = UTC
MEAN_ELEMENT_THEORY = SGP/SGP4

EPOCH          = 2026-03-08T11:57:33.181344
MEAN_MOTION    = 15.32290865
ECCENTRICITY   = .0015187
INCLINATION    = 51.8843
RA_OF_ASC_NODE = 225.3306
ARG_OF_PERICENTER = 55.7532
MEAN_ANOMALY   = 304.4889

EPHEMERIS_TYPE = 0
CLASSIFICATION_TYPE = U
NORAD_CAT_ID   = 67775
ELEMENT_SET_NO = 999
REV_AT_EPOCH   = 490
BSTAR          = .9918E-3
MEAN_MOTION_DOT = .31245E-3
MEAN_MOTION_DDOT = 0

CCSDS_OMM_VERS = 2.0
CREATION_DATE  = 
ORIGINATOR     = 

OBJECT_NAME    = KUIPER-00209
OBJECT_ID      = 2026-030N
CENTER_NAME    = EARTH
REF_FRAME      = TEME
TIME_SYSTEM    = UTC
MEAN_ELEMENT_THEORY = SGP/SGP4

EPOCH          = 2026-03-08T12:10:56.417088
MEAN_MOTION    = 15.30262758
ECCENTRICITY   = .0013156
INCLINATION    = 51.8830
RA_OF_ASC_NODE = 225.3868
ARG_OF_PERICENTER = 62.7600
MEAN_ANOMALY   = 297.4722

EPHEMERIS_TYPE = 0
CLASSIFICATION_TYPE = U
NORAD_CAT_ID   = 67776
ELEMENT_SET_NO = 999
REV_AT_EPOCH   = 490
BSTAR          = .11963E-2
MEAN_MOTION_DOT = .35423E-3
MEAN_MOTION_DDOT = 0

CCSDS_OMM_VERS = 2.0
CREATION_DATE  = 
ORIGINATOR     = 

OBJECT_NAME    = KUIPER-00213
OBJECT_ID      = 2026-030P
CENTER_NAME    = EARTH
REF_FRAME      = TEME
TIME_SYSTEM    = UTC
MEAN_ELEMENT_THEORY = SGP/SGP4

EPOCH          = 2026-03-08T11:57:34.557696
MEAN_MOTION    = 15.32664017
ECCENTRICITY   = .0015532
INCLINATION    = 51.8819
RA_OF_ASC_NODE = 225.3217
ARG_OF_PERICENTER = 59.8010
MEAN_ANOMALY   = 300.4511

EPHEMERIS_TYPE = 0
CLASSIFICATION_TYPE = U
NORAD_CAT_ID   = 67777
ELEMENT_SET_NO = 999
REV_AT_EPOCH   = 490
BSTAR          = .19609E-2
MEAN_MOTION_DOT = .63154E-3
MEAN_MOTION_DDOT = 0

CCSDS_OMM_VERS = 2.0
CREATION_DATE  = 
ORIGINATOR     = 

OBJECT_NAME    = KUIPER-00214
OBJECT_ID      = 2026-030Q
CENTER_NAME    = EARTH
REF_FRAME      = TEME
TIME_SYSTEM    = UTC
MEAN_ELEMENT_THEORY = SGP/SGP4

EPOCH          = 2026-03-08T12:13:40.012896
MEAN_MOTION    = 15.36731223
ECCENTRICITY   = .0000308
INCLINATION    = 51.8843
RA_OF_ASC_NODE = 224.6713
ARG_OF_PERICENTER = 279.6754
MEAN_ANOMALY   = 80.4197

EPHEMERIS_TYPE = 0
CLASSIFICATION_TYPE = U
NORAD_CAT_ID   = 67778
ELEMENT_SET_NO = 999
REV_AT_EPOCH   = 491
BSTAR          = .12143E-2
MEAN_MOTION_DOT = .44123E-3
MEAN_MOTION_DDOT = 0

CCSDS_OMM_VERS = 2.0
CREATION_DATE  = 
ORIGINATOR     = 

OBJECT_NAME    = KUIPER-00215
OBJECT_ID      = 2026-030R
CENTER_NAME    = EARTH
REF_FRAME      = TEME
TIME_SYSTEM    = UTC
MEAN_ELEMENT_THEORY = SGP/SGP4

EPOCH          = 2026-03-08T11:30:43.705728
MEAN_MOTION    = 15.34441592
ECCENTRICITY   = .0010397
INCLINATION    = 51.8846
RA_OF_ASC_NODE = 225.2125
ARG_OF_PERICENTER = 56.1666
MEAN_ANOMALY   = 304.0307

EPHEMERIS_TYPE = 0
CLASSIFICATION_TYPE = U
NORAD_CAT_ID   = 67779
ELEMENT_SET_NO = 999
REV_AT_EPOCH   = 490
BSTAR          = .12889E-2
MEAN_MOTION_DOT = .43589E-3
MEAN_MOTION_DDOT = 0

CCSDS_OMM_VERS = 2.0
CREATION_DATE  = 
ORIGINATOR     = 

OBJECT_NAME    = KUIPER-00218
OBJECT_ID      = 2026-030S
CENTER_NAME    = EARTH
REF_FRAME      = TEME
TIME_SYSTEM    = UTC
MEAN_ELEMENT_THEORY = SGP/SGP4

EPOCH          = 2026-03-08T11:14:53.039616
MEAN_MOTION    = 15.35158561
ECCENTRICITY   = .0006902
INCLINATION    = 51.8828
RA_OF_ASC_NODE = 225.1387
ARG_OF_PERICENTER = 47.8649
MEAN_ANOMALY   = 312.2923

EPHEMERIS_TYPE = 0
CLASSIFICATION_TYPE = U
NORAD_CAT_ID   = 67780
ELEMENT_SET_NO = 999
REV_AT_EPOCH   = 490
BSTAR          = .13033E-2
MEAN_MOTION_DOT = .45071E-3
MEAN_MOTION_DDOT = 0

CCSDS_OMM_VERS = 2.0
CREATION_DATE  = 
ORIGINATOR     = 

OBJECT_NAME    = KUIPER-00220
OBJECT_ID      = 2026-030T
CENTER_NAME    = EARTH
REF_FRAME      = TEME
TIME_SYSTEM    = UTC
MEAN_ELEMENT_THEORY = SGP/SGP4

EPOCH          = 2026-03-08T11:24:52.811136
MEAN_MOTION    = 15.34742735
ECCENTRICITY   = .0008599
INCLINATION    = 51.8814
RA_OF_ASC_NODE = 225.1771
ARG_OF_PERICENTER = 52.5250
MEAN_ANOMALY   = 307.6517

EPHEMERIS_TYPE = 0
CLASSIFICATION_TYPE = U
NORAD_CAT_ID   = 67781
ELEMENT_SET_NO = 999
REV_AT_EPOCH   = 490
BSTAR          = .13495E-2
MEAN_MOTION_DOT = .46088E-3
MEAN_MOTION_DDOT = 0

CCSDS_OMM_VERS = 2.0
CREATION_DATE  = 
ORIGINATOR     = 

OBJECT_NAME    = KUIPER-00222
OBJECT_ID      = 2026-030U
CENTER_NAME    = EARTH
REF_FRAME      = TEME
TIME_SYSTEM    = UTC
MEAN_ELEMENT_THEORY = SGP/SGP4

EPOCH          = 2026-03-08T12:03:29.511360
MEAN_MOTION    = 15.32414269
ECCENTRICITY   = .0017222
INCLINATION    = 51.8815
RA_OF_ASC_NODE = 225.3463
ARG_OF_PERICENTER = 61.4569
MEAN_ANOMALY   = 298.8147

EPHEMERIS_TYPE = 0
CLASSIFICATION_TYPE = U
NORAD_CAT_ID   = 67782
ELEMENT_SET_NO = 999
REV_AT_EPOCH   = 490
BSTAR          = .13782E-2
MEAN_MOTION_DOT = .43852E-3
MEAN_MOTION_DDOT = 0

CCSDS_OMM_VERS = 2.0
CREATION_DATE  = 
ORIGINATOR     = 

OBJECT_NAME    = KUIPER-00223
OBJECT_ID      = 2026-030V
CENTER_NAME    = EARTH
REF_FRAME      = TEME
TIME_SYSTEM    = UTC
MEAN_ELEMENT_THEORY = SGP/SGP4

EPOCH          = 2026-03-08T11:36:27.544032
MEAN_MOTION    = 15.34090917
ECCENTRICITY   = .0012705
INCLINATION    = 51.8837
RA_OF_ASC_NODE = 225.2331
ARG_OF_PERICENTER = 56.1188
MEAN_ANOMALY   = 304.1004

EPHEMERIS_TYPE = 0
CLASSIFICATION_TYPE = U
NORAD_CAT_ID   = 67783
ELEMENT_SET_NO = 999
REV_AT_EPOCH   = 490
BSTAR          = .11337E-2
MEAN_MOTION_DOT = .37869E-3
MEAN_MOTION_DDOT = 0

CCSDS_OMM_VERS = 2.0
CREATION_DATE  = 
ORIGINATOR     = 

OBJECT_NAME    = KUIPER-00225
OBJECT_ID      = 2026-030W
CENTER_NAME    = EARTH
REF_FRAME      = TEME
TIME_SYSTEM    = UTC
MEAN_ELEMENT_THEORY = SGP/SGP4

EPOCH          = 2026-03-08T10:59:55.059360
MEAN_MOTION    = 15.35888622
ECCENTRICITY   = .0004379
INCLINATION    = 51.8803
RA_OF_ASC_NODE = 225.0658
ARG_OF_PERICENTER = 36.5612
MEAN_ANOMALY   = 323.5673

EPHEMERIS_TYPE = 0
CLASSIFICATION_TYPE = U
NORAD_CAT_ID   = 67784
ELEMENT_SET_NO = 999
REV_AT_EPOCH   = 490
BSTAR          = .14269E-2
MEAN_MOTION_DOT = .50572E-3
MEAN_MOTION_DDOT = 0

CCSDS_OMM_VERS = 2.0
CREATION_DATE  = 
ORIGINATOR     = 

OBJECT_NAME    = KUIPER-00226
OBJECT_ID      = 2026-030X
CENTER_NAME    = EARTH
REF_FRAME      = TEME
TIME_SYSTEM    = UTC
MEAN_ELEMENT_THEORY = SGP/SGP4

EPOCH          = 2026-03-08T12:23:34.489824
MEAN_MOTION    = 15.30706442
ECCENTRICITY   = .0019559
INCLINATION    = 51.8811
RA_OF_ASC_NODE = 225.4376
ARG_OF_PERICENTER = 68.9329
MEAN_ANOMALY   = 291.3745

EPHEMERIS_TYPE = 0
CLASSIFICATION_TYPE = U
NORAD_CAT_ID   = 67785
ELEMENT_SET_NO = 999
REV_AT_EPOCH   = 490
BSTAR          = .6486E-3
MEAN_MOTION_DOT = .19322E-3
MEAN_MOTION_DDOT = 0

CCSDS_OMM_VERS = 2.0
CREATION_DATE  = 
ORIGINATOR     = 

OBJECT_NAME    = KUIPER-00259
OBJECT_ID      = 2026-030Y
CENTER_NAME    = EARTH
REF_FRAME      = TEME
TIME_SYSTEM    = UTC
MEAN_ELEMENT_THEORY = SGP/SGP4

EPOCH          = 2026-03-08T11:18:06.548832
MEAN_MOTION    = 15.35054661
ECCENTRICITY   = .0008589
INCLINATION    = 51.8807
RA_OF_ASC_NODE = 225.1466
ARG_OF_PERICENTER = 46.6825
MEAN_ANOMALY   = 313.4876

EPHEMERIS_TYPE = 0
CLASSIFICATION_TYPE = U
NORAD_CAT_ID   = 67786
ELEMENT_SET_NO = 999
REV_AT_EPOCH   = 490
BSTAR          = .1241E-2
MEAN_MOTION_DOT = .42761E-3
MEAN_MOTION_DDOT = 0

